STARLINK-1806_new
1 17549C 21009B   21326.12517436  .00010297  00000-0  69000-3 0  3265
2 17549  53.0539 213.1776 0002189  67.2779  41.7952 15.06382129    17
STARLINK-1806_old
1 27549C 21009B   21325.13922637  .00000817  00000-0  54710-4 0  3257
2 27549  53.0538 217.6036 0002217  67.2628  91.9894 15.06406440    14
